NORAD_CAT_ID,OBJECT_NAME,OBJECT_TYPE,EPOCH,MEAN_MOTION,ECCENTRICITY,INCLINATION,RA_OF_ASC_NODE,ARG_OF_PERICENTER,MEAN_ANOMALY,BSTAR,MEAN_MOTION_DOT,MEAN_MOTION_DDOT,TLE_LINE0,TLE_LINE1,TLE_LINE2,SEMIMAJOR_AXIS,PERIOD,APOGEE,PERIGEE,DECAYED
55414.0,STARLINK-5620,PAYLOAD,2024-03-08 11:05:54,14.98339284,0.0002771,69.9997,128.0544,264.8758,95.2085,6.3493e-05,6.65e-06,0.0,0 STARLINK-5620,1 55414U 23014Z   24068.46244210  .00000665  00000-0  63493-4 0  9998,2 55414  69.9997 128.0544 0002771 264.8758  95.2085 14.98339284 62032,6950.164,96.106,573.955,570.103,0.0
55414.0,STARLINK-5620,PAYLOAD,2024-03-08 20:42:43,14.98338267,0.0002844,69.9996,127.0426,278.6063,81.4774,4.5734e-06,-3.8e-07,0.0,0 STARLINK-5620,1 55414U 23014Z   24068.86300303 -.00000038  00000-0  45734-5 0  9992,2 55414  69.9996 127.0426 0002844 278.6063  81.4774 14.98338267 62090,6950.167,96.106,574.009,570.056,0.0
55414.0,STARLINK-5620,PAYLOAD,2024-03-09 03:07:16,14.98333031,0.0002606,70.0002,126.3712,272.605,87.4811,-3.4773e-05,-5.08e-06,0.0,0 STARLINK-5620,1 55414U 23014Z   24069.13004661 -.00000508  00000-0 -34773-4 0  9994,2 55414  70.0002 126.3712 0002606 272.6050  87.4811 14.98333031 62134,6950.184,96.107,573.86,570.237,0.0
55414.0,STARLINK-5620,PAYLOAD,2024-03-09 11:07:56,14.9832877,0.0002647,70.0,125.5296,270.4151,89.6705,-7.5772e-05,-9.97e-06,0.0,0 STARLINK-5620,1 55414U 23014Z   24069.46384976 -.00000997  00000-0 -75772-4 0  9996,2 55414  70.0000 125.5296 0002647 270.4151  89.6705 14.98328770 62188,6950.197,96.107,573.901,570.222,0.0
55414.0,STARLINK-5620,PAYLOAD,2024-03-09 20:44:44,14.98332405,0.0002732,69.9998,124.5192,271.1014,88.9832,-6.3478e-05,-8.5e-06,0.0,0 STARLINK-5620,1 55414U 23014Z   24069.86440631 -.00000850  00000-0 -63478-4 0  9999,2 55414  69.9998 124.5192 0002732 271.1014  88.9832 14.98332405 62246,6950.185,96.107,573.949,570.152,0.0
55414.0,STARLINK-5620,PAYLOAD,2024-03-10 11:09:56,14.98336935,0.0002553,69.9997,123.0046,263.6461,96.4407,-5.017e-05,-6.92e-06,0.0,0 STARLINK-5620,1 55414U 23014Z   24070.46524106 -.00000692  00000-0 -50170-4 0  9996,2 55414  69.9997 123.0046 0002553 263.6461  96.4407 14.98336935 62334,6950.171,96.107,573.811,570.262,0.0
55414.0,STARLINK-5620,PAYLOAD,2024-03-10 14:22:12,14.98336973,0.0002843,69.9994,122.6674,271.7981,88.2852,-1.6275e-05,-2.87e-06,0.0,0 STARLINK-5620,1 55414U 23014Z   24070.59875952 -.00000287  00000-0 -16275-4 0  9996,2 55414  69.9994 122.6674 0002843 271.7981  88.2852 14.98336973 62359,6950.171,96.107,574.012,570.06,0.0
55414.0,STARLINK-5620,PAYLOAD,2024-03-10 20:46:45,14.98317001,0.0002497,69.9996,121.9939,274.4558,85.6316,0.00018173,2.075e-05,0.0,0 STARLINK-5620,1 55414U 23014Z   24070.86580863  .00002075  00000-0  18173-3 0  9993,2 55414  69.9996 121.9939 0002497 274.4558  85.6316 14.98317001 62393,6950.233,96.108,573.834,570.363,0.0
55414.0,STARLINK-5620,PAYLOAD,2024-03-11 11:11:57,14.98329097,0.0002791,69.9994,120.4775,265.6339,94.4501,3.9693e-06,-4.6e-07,0.0,0 STARLINK-5620,1 55414U 23014Z   24071.46664331 -.00000046  00000-0  39693-5 0  9992,2 55414  69.9994 120.4775 0002791 265.6339  94.4501 14.98329097 62481,6950.196,96.107,574.0,570.121,0.0
55414.0,STARLINK-5620,PAYLOAD,2024-03-12 11:13:58,14.98329264,0.0002851,69.9992,117.9534,268.2771,91.8061,2.0191e-05,1.48e-06,0.0,0 STARLINK-5620,1 55414U 23014Z   24072.46804325  .00000148  00000-0  20191-4 0  9996,2 55414  69.9992 117.9534 0002851 268.2771  91.8061 14.98329264 62634,6950.195,96.107,574.042,570.079,0.0
55414.0,STARLINK-5620,PAYLOAD,2024-03-12 20:50:47,14.98329667,0.0002976,69.9991,116.9437,269.7619,90.3199,1.5433e-05,9.1e-07,0.0,0 STARLINK-5620,1 55414U 23014Z   24072.86860278  .00000091  00000-0  15433-4 0  9999,2 55414  69.9991 116.9437 0002976 269.7619  90.3199 14.98329667 62698,6950.194,96.107,574.127,569.991,0.0
55414.0,STARLINK-5620,PAYLOAD,2024-03-13 11:15:59,14.98330067,0.000302,69.9991,115.429,271.034,89.0473,2.1847e-05,1.68e-06,0.0,0 STARLINK-5620,1 55414U 23014Z   24073.46944247  .00000168  00000-0  21847-4 0  9996,2 55414  69.9991 115.4290 0003020 271.0340  89.0473 14.98330067 62783,6950.193,96.107,574.157,569.959,0.0
55414.0,STARLINK-5620,PAYLOAD,2024-03-14 06:29:36,14.98331486,0.0003033,69.999,113.4091,271.0295,89.0516,1.7837e-05,1.2e-06,0.0,0 STARLINK-5620,1 55414U 23014Z   24074.27056114  .00000120  00000-0  17837-4 0  9995,2 55414  69.9990 113.4091 0003033 271.0295  89.0516 14.98331486 62900,6950.188,96.107,574.161,569.945,0.0
55414.0,STARLINK-5620,PAYLOAD,2024-03-14 12:54:08,14.98334143,0.0003011,69.999,112.7357,271.1061,88.9753,4.5921e-05,4.55e-06,0.0,0 STARLINK-5620,1 55414U 23014Z   24074.53759814  .00000455  00000-0  45921-4 0  9997,2 55414  69.9990 112.7357 0003011 271.1061  88.9753 14.98334143 62943,6950.18,96.107,574.138,569.952,0.0
55414.0,STARLINK-5620,PAYLOAD,2024-03-15 04:55:29,14.98328397,0.0002972,69.999,111.0525,271.0184,89.0635,-2.5008e-05,-3.91e-06,0.0,0 STARLINK-5620,1 55414U 23014Z   24075.20520314 -.00000391  00000-0 -25008-4 0  9998,2 55414  69.9990 111.0525 0002972 271.0184  89.0635 14.98328397 63049,6950.198,96.107,574.128,569.997,0.0
55414.0,STARLINK-5620,PAYLOAD,2024-03-15 11:20:01,14.98329773,0.000291,69.9991,110.3796,269.3806,90.7019,-1.0475e-05,-2.18e-06,0.0,0 STARLINK-5620,1 55414U 23014Z   24075.47224183 -.00000218  00000-0 -10475-4 0  9992,2 55414  69.9991 110.3796 0002910 269.3806  90.7019 14.98329773 63083,6950.194,96.107,574.081,570.036,0.0
55414.0,STARLINK-5620,PAYLOAD,2024-03-16 04:57:30,14.98328655,0.0002827,69.9991,108.5281,267.5384,92.5451,-3.9737e-05,-5.67e-06,0.0,0 STARLINK-5620,1 55414U 23014Z   24076.20660341 -.00000567  00000-0 -39737-4 0  9993,2 55414  69.9991 108.5281 0002827 267.5384  92.5451 14.98328655 63199,6950.197,96.107,574.027,570.097,0.0
55414.0,STARLINK-5620,PAYLOAD,2024-03-16 11:22:02,14.98327273,0.0002843,69.9991,107.8548,267.437,92.6463,-5.1521e-05,-7.08e-06,0.0,0 STARLINK-5620,1 55414U 23014Z   24076.47364487 -.00000708  00000-0 -51521-4 0  9996,2 55414  69.9991 107.8548 0002843 267.4370  92.6463 14.98327273 63233,6950.201,96.107,574.042,570.09,0.0
55414.0,STARLINK-5620,PAYLOAD,2024-03-17 04:59:31,14.9832902,0.0002941,69.9988,106.0025,262.1215,97.961,1.963e-05,1.41e-06,0.0,0 STARLINK-5620,1 55414U 23014Z   24077.20800160  .00000141  00000-0  19630-4 0  9995,2 55414  69.9988 106.0025 0002941 262.1215  97.9610 14.98329020 63345,6950.196,96.107,574.105,570.017,0.0
55414.0,STARLINK-5620,PAYLOAD,2024-03-17 11:24:03,14.98329783,0.000294,69.9987,105.3291,264.5936,95.4887,2.692e-05,2.28e-06,0.0,0 STARLINK-5620,1 55414U 23014Z   24077.47504112  .00000228  00000-0  26920-4 0  9998,2 55414  69.9987 105.3291 0002940 264.5936  95.4887 14.98329783 63385,6950.194,96.107,574.102,570.015,0.0
55414.0,STARLINK-5620,PAYLOAD,2024-03-18 05:01:32,14.98330911,0.0002976,69.9986,103.4772,265.9021,94.1798,5.6338e-05,5.79e-06,0.0,0 STARLINK-5620,1 55414U 23014Z   24078.20939914  .00000579  00000-0  56338-4 0  9997,2 55414  69.9986 103.4772 0002976 265.9021  94.1798 14.98330911 63490,6950.19,96.107,574.123,569.987,0.0
55414.0,STARLINK-5620,PAYLOAD,2024-03-18 11:26:04,14.9833092,0.0002978,69.9986,102.8039,266.2256,93.8563,5.2028e-05,5.28e-06,0.0,0 STARLINK-5620,1 55414U 23014Z   24078.47643909  .00000528  00000-0  52028-4 0  9998,2 55414  69.9986 102.8039 0002978 266.2256  93.8563 14.98330920 63536,6950.19,96.107,574.125,569.985,0.0
55414.0,STARLINK-5620,PAYLOAD,2024-03-19 11:28:05,14.98332984,0.0002952,69.9988,100.2793,266.556,93.5262,1.2046e-05,5.1e-07,0.0,0 STARLINK-5620,1 55414U 23014Z   24079.47783776  .00000051  00000-0  12046-4 0  9993,2 55414  69.9988 100.2793 0002952 266.5560  93.5262 14.98332984 63681,6950.184,96.107,574.1,569.997,0.0
55414.0,STARLINK-5620,PAYLOAD,2024-03-20 11:30:05,14.98335965,0.000292,69.9989,97.754,267.6983,92.3842,2.8192e-05,2.43e-06,0.0,0 STARLINK-5620,1 55414U 23014Z   24080.47923245  .00000243  00000-0  28192-4 0  9994,2 55414  69.9989  97.7540 0002920 267.6983  92.3842 14.98335965 63838,6950.174,96.107,574.069,570.01,0.0
55414.0,STARLINK-5620,PAYLOAD,2024-03-21 05:07:34,14.98328754,0.0002808,69.9992,95.9027,264.153,95.9308,-2.6832e-05,-4.13e-06,0.0,0 STARLINK-5620,1 55414U 23014Z   24081.21359747 -.00000413  00000-0 -26832-4 0  9997,2 55414  69.9992  95.9027 0002808 264.1530  95.9308 14.98328754 63943,6950.197,96.107,574.013,570.11,0.0
55414.0,STARLINK-5620,PAYLOAD,2024-03-21 09:55:59,14.98326705,0.0002845,69.9992,95.3979,265.0971,94.9863,-4.8541e-05,-6.72e-06,0.0,0 STARLINK-5620,1 55414U 23014Z   24081.41387962 -.00000672  00000-0 -48541-4 0  9997,2 55414  69.9992  95.3979 0002845 265.0971  94.9863 14.98326705 63975,6950.203,96.107,574.045,570.091,0.0
55414.0,STARLINK-5620,PAYLOAD,2024-03-21 17:56:39,14.98329047,0.0002852,69.9992,94.5562,266.1669,93.9164,-3.3274e-05,-4.9e-06,0.0,0 STARLINK-5620,1 55414U 23014Z   24081.74767806 -.00000490  00000-0 -33274-4 0  9997,2 55414  69.9992  94.5562 0002852 266.1669  93.9164 14.98329047 64020,6950.196,96.107,574.043,570.079,0.0
55414.0,STARLINK-5620,PAYLOAD,2024-03-22 05:09:35,14.98332179,0.0002913,69.999,93.3777,265.7776,94.305,-2.2771e-05,-3.65e-06,0.0,0 STARLINK-5620,1 55414U 23014Z   24082.21499512 -.00000365  00000-0 -22771-4 0  9997,2 55414  69.9990  93.3777 0002913 265.7776  94.3050 14.98332179 64091,6950.186,96.107,574.076,570.027,0.0
55414.0,STARLINK-5620,PAYLOAD,2024-03-22 08:21:51,14.98332656,0.0002896,69.9989,93.041,265.9722,94.1106,-1.3466e-05,-2.54e-06,0.0,0 STARLINK-5620,1 55414U 23014Z   24082.34851442 -.00000254  00000-0 -13466-4 0  9993,2 55414  69.9989  93.0410 0002896 265.9722  94.1106 14.98332656 64116,6950.185,96.107,574.062,570.037,0.0
55414.0,STARLINK-5620,PAYLOAD,2024-03-23 10:00:01,14.9832447,0.0002985,69.9989,90.3475,266.5109,93.5709,1.7018e-06,-7.3e-07,0.0,0 STARLINK-5620,1 55414U 23014Z   24083.41668051 -.00000073  00000-0  17018-5 0  9990,2 55414  69.9989  90.3475 0002985 266.5109  93.5709 14.98324470 64276,6950.21,96.107,574.15,570.0,0.0
